[{"OBJECT_NAME":"STARLINK-5290","OBJECT_ID":"2022-141A","EPOCH":"2026-03-09T06:19:22.680480","MEAN_MOTION":15.08831092,"ECCENTRICITY":0.00013637,"INCLINATION":53.218,"RA_OF_ASC_NODE":15.9856,"ARG_OF_PERICENTER":99.258,"MEAN_ANOMALY":260.8566,"EPHEMERIS_TYPE":0,"CLASSIFICATION_TYPE":"U","NORAD_CAT_ID":54157,"ELEMENT_SET_NO":999,"REV_AT_EPOCH":18565,"BSTAR":0.00011846209,"MEAN_MOTION_DOT":1.597e-5,"MEAN_MOTION_DDOT":0},{"OBJECT_NAME":"CZ-4C R\/B","OBJECT_ID":"2021-026B","EPOCH":"2026-03-09T16:37:41.696544","MEAN_MOTION":15.16445633,"ECCENTRICITY":0.00393855,"INCLINATION":97.7468,"RA_OF_ASC_NODE":117.371,"ARG_OF_PERICENTER":22.5612,"MEAN_ANOMALY":337.7341,"EPHEMERIS_TYPE":0,"CLASSIFICATION_TYPE":"U","NORAD_CAT_ID":48080,"ELEMENT_SET_NO":999,"REV_AT_EPOCH":27175,"BSTAR":0.00026802982,"MEAN_MOTION_DOT":5.244e-5,"MEAN_MOTION_DDOT":0}]
